PROGRESS-MS 33          
1 68319U 26058A   26105.23148970  .00005508  00000+0  10834-3 0  9992
2 68319  51.6321 251.6702 0006571 314.4960  45.5491 15.48920688  3165
CYGNUS NG-24            
1 68689U 26079A   26105.23148970  .00005508  00000+0  10834-3 0  9995
2 68689  51.6321 251.6702 0006571 314.4960  45.5491 15.48920688   500
